start=new Date('2023-03-27T00:00:00.000Z').valueOf();
sats=[{"REF_FRAME":"TEME","SEMIMAJOR_AXIS":"6925.425","APOAPSIS":"548.254","BSTAR":"0.00213720000000","RA_OF_ASC_NODE":"339.2897","ECCENTRICITY":"0.00013920","TLE_LINE2":"2 46556  53.0547 339.2897 0001392 105.5913 254.5230 15.06375188136917","ELEMENT_SET_NO":"999","MEAN_MOTION":"15.06375188","LAUNCH_DATE":"2020-10-06","MEAN_MOTION_DDOT":"0.0000000000000","COUNTRY_CODE":"US","NORAD_CAT_ID":"46556","INCLINATION":"53.0547","FILE":"3871964","PERIAPSIS":"546.326","CLASSIFICATION_TYPE":"U","TIME_SYSTEM":"UTC","ARG_OF_PERICENTER":"105.5913","OBJECT_TYPE":"PAYLOAD","TLE_LINE1":"1 46556U 20070AA  23085.94573534  .00031674  00000-0  21372-2 0  9991","OBJECT_NAME":"STARLINK-1676","PERIOD":"95.594","MEAN_ELEMENT_THEORY":"SGP4","CENTER_NAME":"EARTH","EPHEMERIS_TYPE":"0","MEAN_MOTION_DOT":"0.00031674","OBJECT_ID":"2020-070AA","SITE":"AFETR","MEAN_ANOMALY":"254.5230","DECAY_DATE":null,"EPOCH":"2023-03-26T22:41:51.533376","RCS_SIZE":"LARGE","GP_ID":"228915080","REV_AT_EPOCH":"13691"},{"REV_AT_EPOCH":"13712","GP_ID":"228915330","RCS_SIZE":"LARGE","MEAN_ANOMALY":"273.8325","SITE":"AFETR","DECAY_DATE":null,"EPOCH":"2023-03-26T22:09:19.521504","OBJECT_ID":"2020-070AB","MEAN_MOTION_DOT":"0.00054921","CENTER_NAME":"EARTH","EPHEMERIS_TYPE":"0","PERIOD":"95.590","MEAN_ELEMENT_THEORY":"SGP4","ARG_OF_PERICENTER":"86.2802","OBJECT_TYPE":"PAYLOAD","TLE_LINE1":"1 46557U 20070AB  23085.92314261  .00054921  00000-0  36736-2 0  9990","OBJECT_NAME":"STARLINK-1679","TIME_SYSTEM":"UTC","CLASSIFICATION_TYPE":"U","INCLINATION":"53.0526","FILE":"3871964","PERIAPSIS":"546.258","NORAD_CAT_ID":"46557","TLE_LINE2":"2 46557  53.0526 324.3884 0001211  86.2802 273.8325 15.06437984137124","ELEMENT_SET_NO":"999","MEAN_MOTION":"15.06437984","LAUNCH_DATE":"2020-10-06","MEAN_MOTION_DDOT":"0.0000000000000","COUNTRY_CODE":"US","BSTAR":"0.00367360000000","RA_OF_ASC_NODE":"324.3884","ECCENTRICITY":"0.00012110","REF_FRAME":"TEME","SEMIMAJOR_AXIS":"6925.232","APOAPSIS":"547.936"},{"BSTAR":"0.00335150000000","ECCENTRICITY":"0.00009130","RA_OF_ASC_NODE":"324.3597","SEMIMAJOR_AXIS":"6925.225","REF_FRAME":"TEME","APOAPSIS":"547.722","TLE_LINE2":"2 46558  53.0536 324.3597 0000913  76.7688 283.3402 15.06440462137094","MEAN_MOTION":"15.06440462","ELEMENT_SET_NO":"999","COUNTRY_CODE":"US","MEAN_MOTION_DDOT":"0.0000000000000","LAUNCH_DATE":"2020-10-06","INCLINATION":"53.0536","FILE":"3871964","PERIAPSIS":"546.457","NORAD_CAT_ID":"46558","ARG_OF_PERICENTER":"76.7688","OBJECT_TYPE":"PAYLOAD","OBJECT_NAME":"STARLINK-1680","TLE_LINE1":"1 46558U 20070AC  23085.93051285  .00050049  00000-0  33515-2 0  9995","TIME_SYSTEM":"UTC","CLASSIFICATION_TYPE":"U","EPHEMERIS_TYPE":"0","CENTER_NAME":"EARTH","PERIOD":"95.590","MEAN_ELEMENT_THEORY":"SGP4","OBJECT_ID":"2020-070AC","MEAN_MOTION_DOT":"0.00050049","RCS_SIZE":"LARGE","MEAN_ANOMALY":"283.3402","SITE":"AFETR","EPOCH":"2023-03-26T22:19:56.310240","DECAY_DATE":null,"REV_AT_EPOCH":"13709","GP_ID":"228916081"},{"CENTER_NAME":"EARTH","EPHEMERIS_TYPE":"0","MEAN_ELEMENT_THEORY":"SGP4","PERIOD":"95.593","OBJECT_ID":"2020-070AD","MEAN_MOTION_DOT":"0.00022965","RCS_SIZE":"LARGE","DECAY_DATE":null,"EPOCH":"2023-03-26T22:02:00.458304","SITE":"AFETR","MEAN_ANOMALY":"270.3220","REV_AT_EPOCH":"13732","GP_ID":"228914331","RA_OF_ASC_NODE":"309.4005","ECCENTRICITY":"0.00011700","BSTAR":"0.00155610000000","APOAPSIS":"548.061","SEMIMAJOR_AXIS":"6925.386","REF_FRAME":"TEME","LAUNCH_DATE":"2020-10-06","MEAN_MOTION_DDOT":"0.0000000000000","COUNTRY_CODE":"US","TLE_LINE2":"2 46559  53.0536 309.4005 0001170  89.7903 270.3220 15.06387754137327","MEAN_MOTION":"15.06387754","ELEMENT_SET_NO":"999","FILE":"3871964","PERIAPSIS":"546.441","INCLINATION":"53.0536","NORAD_CAT_ID":"46559","OBJECT_NAME":"STARLINK-1681","TLE_LINE1":"1 46559U 20070AD  23085.91806086  .00022965  00000-0  15561-2 0  9998","ARG_OF_PERICENTER":"89.7903","OBJECT_TYPE":"PAYLOAD","CLASSIFICATION_TYPE":"U","TIME_SYSTEM":"UTC"},{"TLE_LINE1":"1 46560U 20070AE  23086.00001157  .00170055  00000-0  15779-2 0  9992","OBJECT_NAME":"STARLINK-1706","OBJECT_TYPE":"PAYLOAD","ARG_OF_PERICENTER":"179.8653","CLASSIFICATION_TYPE":"U","TIME_SYSTEM":"UTC","FILE":"3871964","PERIAPSIS":"365.938","INCLINATION":"53.0477","NORAD_CAT_ID":"46560","LAUNCH_DATE":"2020-10-06","COUNTRY_CODE":"US","MEAN_MOTION_DDOT":"0.0000000000000","ELEMENT_SET_NO":"999","TLE_LINE2":"2 46560  53.0477 295.7279 0004814 179.8653  94.1915 15.66410929  1302","MEAN_MOTION":"15.66410929","RA_OF_ASC_NODE":"295.7279","ECCENTRICITY":"0.00048140","BSTAR":"0.00157790000000","APOAPSIS":"372.434","REF_FRAME":"TEME","SEMIMAJOR_AXIS":"6747.321","REV_AT_EPOCH":"130","GP_ID":"228914580","RCS_SIZE":"LARGE","DECAY_DATE":null,"EPOCH":"2023-03-27T00:00:00.999648","MEAN_ANOMALY":"94.1915","SITE":"AFETR","OBJECT_ID":"2020-070AE","MEAN_MOTION_DOT":"0.00170055","CENTER_NAME":"EARTH","EPHEMERIS_TYPE":"0","MEAN_ELEMENT_THEORY":"SGP4","PERIOD":"91.930"},{"CENTER_NAME":"EARTH","EPHEMERIS_TYPE":"0","MEAN_ELEMENT_THEORY":"SGP4","PERIOD":"95.592","OBJECT_ID":"2020-070AF","MEAN_MOTION_DOT":"0.00026892","RCS_SIZE":"LARGE","DECAY_DATE":null,"EPOCH":"2023-03-26T23:06:24.322464","MEAN_ANOMALY":"264.8487","SITE":"AFETR","REV_AT_EPOCH":"13712","GP_ID":"228915831","RA_OF_ASC_NODE":"324.2420","ECCENTRICITY":"0.00012910","BSTAR":"0.00181760000000","APOAPSIS":"548.123","SEMIMAJOR_AXIS":"6925.364","REF_FRAME":"TEME","LAUNCH_DATE":"2020-10-06","COUNTRY_CODE":"US","MEAN_MOTION_DDOT":"0.0000000000000","TLE_LINE2":"2 46561  53.0545 324.2420 0001291  95.2649 264.8487 15.06395092137124","MEAN_MOTION":"15.06395092","ELEMENT_SET_NO":"999","FILE":"3871964","PERIAPSIS":"546.335","INCLINATION":"53.0545","NORAD_CAT_ID":"46561","TLE_LINE1":"1 46561U 20070AF  23085.96278151  .00026892  00000-0  18176-2 0  9990","OBJECT_NAME":"STARLINK-1709","OBJECT_TYPE":"PAYLOAD","ARG_OF_PERICENTER":"95.2649","CLASSIFICATION_TYPE":"U","TIME_SYSTEM":"UTC"},{"REV_AT_EPOCH":"13718","GP_ID":"228915581","RCS_SIZE":"LARGE","EPOCH":"2023-03-26T21:28:50.463264","DECAY_DATE":null,"SITE":"AFETR","MEAN_ANOMALY":"263.0151","OBJECT_ID":"2020-070AG","MEAN_MOTION_DOT":"0.00025512","EPHEMERIS_TYPE":"0","CENTER_NAME":"EARTH","MEAN_ELEMENT_THEORY":"SGP4","PERIOD":"95.595","TLE_LINE1":"1 46562U 20070AG  23085.89502851  .00025512  00000-0  17274-2 0  9996","OBJECT_NAME":"STARLINK-1714","OBJECT_TYPE":"PAYLOAD","ARG_OF_PERICENTER":"97.0970","TIME_SYSTEM":"UTC","CLASSIFICATION_TYPE":"U","FILE":"3871964","PERIAPSIS":"546.543","INCLINATION":"53.0533","NORAD_CAT_ID":"46562","COUNTRY_CODE":"US","MEAN_MOTION_DDOT":"0.0000000000000","LAUNCH_DATE":"2020-10-06","MEAN_MOTION":"15.06357876","TLE_LINE2":"2 46562  53.0533 319.5093 0001154  97.0970 263.0151 15.06357876137183","ELEMENT_SET_NO":"999","ECCENTRICITY":"0.00011540","RA_OF_ASC_NODE":"319.5093","BSTAR":"0.00172740000000","APOAPSIS":"548.142","SEMIMAJOR_AXIS":"6925.478","REF_FRAME":"TEME"},{"CLASSIFICATION_TYPE":"U","TIME_SYSTEM":"UTC","OBJECT_NAME":"STARLINK-1730","TLE_LINE1":"1 46563U 20070AH  23085.94389042  .00026833  00000-0  18142-2 0  9990","OBJECT_TYPE":"PAYLOAD","ARG_OF_PERICENTER":"94.7661","NORAD_CAT_ID":"46563","PERIAPSIS":"546.440","FILE":"3871964","INCLINATION":"53.0540","LAUNCH_DATE":"2020-10-06","COUNTRY_CODE":"US","MEAN_MOTION_DDOT":"0.0000000000000","TLE_LINE2":"2 46563  53.0540 319.2938 0001185  94.7661 265.3464 15.06384781137190","ELEMENT_SET_NO":"999","MEAN_MOTION":"15.06384781","APOAPSIS":"548.081","REF_FRAME":"TEME","SEMIMAJOR_AXIS":"6925.395","RA_OF_ASC_NODE":"319.2938","ECCENTRICITY":"0.00011850","BSTAR":"0.00181420000000","GP_ID":"228914831","REV_AT_EPOCH":"13719","DECAY_DATE":null,"EPOCH":"2023-03-26T22:39:12.132288","SITE":"AFETR","MEAN_ANOMALY":"265.3464","RCS_SIZE":"LARGE","MEAN_MOTION_DOT":"0.00026833","OBJECT_ID":"2020-070AH","MEAN_ELEMENT_THEORY":"SGP4","PERIOD":"95.593","CENTER_NAME":"EARTH","EPHEMERIS_TYPE":"0"},{"CLASSIFICATION_TYPE":"U","TIME_SYSTEM":"UTC","TLE_LINE1":"1 46564U 20070AJ  23085.92550495  .00017186  00000-0  11704-2 0  9999","OBJECT_NAME":"STARLINK-1733","ARG_OF_PERICENTER":"65.4383","OBJECT_TYPE":"PAYLOAD","NORAD_CAT_ID":"46564","FILE":"3871964","PERIAPSIS":"546.353","INCLINATION":"53.0539","LAUNCH_DATE":"2020-10-06","COUNTRY_CODE":"US","MEAN_MOTION_DDOT":"0.0000000000000","MEAN_MOTION":"15.06382607","TLE_LINE2":"2 46564  53.0539 319.3839 0001319  65.4383 294.6743 15.06382607137195","ELEMENT_SET_NO":"999","APOAPSIS":"548.180","REF_FRAME":"TEME","SEMIMAJOR_AXIS":"6925.402","RA_OF_ASC_NODE":"319.3839","ECCENTRICITY":"0.00013190","BSTAR":"0.00117040000000","GP_ID":"228915081","REV_AT_EPOCH":"13719","DECAY_DATE":null,"EPOCH":"2023-03-26T22:12:43.627680","SITE":"AFETR","MEAN_ANOMALY":"294.6743","RCS_SIZE":"LARGE","MEAN_MOTION_DOT":"0.00017186","OBJECT_ID":"2020-070AJ","MEAN_ELEMENT_THEORY":"SGP4","PERIOD":"95.593","CENTER_NAME":"EARTH","EPHEMERIS_TYPE":"0"},{"SEMIMAJOR_AXIS":"6925.431","REF_FRAME":"TEME","APOAPSIS":"548.160","BSTAR":"0.00142740000000","RA_OF_ASC_NODE":"319.4784","ECCENTRICITY":"0.00012480","TLE_LINE2":"2 46565  53.0539 319.4784 0001248  91.8466 268.2666 15.06373158137183","ELEMENT_SET_NO":"999","MEAN_MOTION":"15.06373158","LAUNCH_DATE":"2020-10-06","COUNTRY_CODE":"US","MEAN_MOTION_DDOT":"0.0000000000000","NORAD_CAT_ID":"46565","INCLINATION":"53.0539","PERIAPSIS":"546.432","FILE":"3871964","TIME_SYSTEM":"UTC","CLASSIFICATION_TYPE":"U","ARG_OF_PERICENTER":"91.8466","OBJECT_TYPE":"PAYLOAD","OBJECT_NAME":"STARLINK-1735","TLE_LINE1":"1 46565U 20070AK  23085.90335594  .00021028  00000-0  14274-2 0  9994","PERIOD":"95.594","MEAN_ELEMENT_THEORY":"SGP4","CENTER_NAME":"EARTH","EPHEMERIS_TYPE":"0","MEAN_MOTION_DOT":"0.00021028","OBJECT_ID":"2020-070AK","SITE":"AFETR","MEAN_ANOMALY":"268.2666","DECAY_DATE":null,"EPOCH":"2023-03-26T21:40:49.953216","RCS_SIZE":"LARGE","GP_ID":"228915331","REV_AT_EPOCH":"13718"}];
